[{"OBJECT_NAME":"STARLINK-36049","OBJECT_ID":"2025-278Q","EPOCH":"2026-03-09T19:21:59.994432","MEAN_MOTION":15.27568749,"ECCENTRICITY":2.147e-5,"INCLINATION":42.9964,"RA_OF_ASC_NODE":113.9982,"ARG_OF_PERICENTER":329.738,"MEAN_ANOMALY":30.3459,"EPHEMERIS_TYPE":0,"CLASSIFICATION_TYPE":"U","NORAD_CAT_ID":66805,"ELEMENT_SET_NO":999,"REV_AT_EPOCH":1522,"BSTAR":0.00079065186,"MEAN_MOTION_DOT":0.00021551,"MEAN_MOTION_DDOT":0},{"OBJECT_NAME":"OV1-2","OBJECT_ID":"1965-078A","EPOCH":"2026-03-09T03:01:50.580768","MEAN_MOTION":13.00501958,"ECCENTRICITY":0.1131046,"INCLINATION":144.2289,"RA_OF_ASC_NODE":293.9642,"ARG_OF_PERICENTER":92.8937,"MEAN_ANOMALY":280.1442,"EPHEMERIS_TYPE":0,"CLASSIFICATION_TYPE":"U","NORAD_CAT_ID":1613,"ELEMENT_SET_NO":999,"REV_AT_EPOCH":70168,"BSTAR":0.00044752779,"MEAN_MOTION_DOT":4.816e-5,"MEAN_MOTION_DDOT":0}]
